start=new Date('2022-10-31T00:00:00.000Z').valueOf();
sats=[{"CLASSIFICATION_TYPE":"U","OBJECT_TYPE":"PAYLOAD","SEMIMAJOR_AXIS":"6917.900","EPOCH":"2022-10-30T17:57:09.559584","BSTAR":"0.00001895700000","OBJECT_ID":"2022-041AC","DECAY_DATE":null,"REV_AT_EPOCH":"2929","OBJECT_NAME":"STARLINK-3822","MEAN_MOTION":"15.08833654","SITE":"AFETR","ELEMENT_SET_NO":"999","LAUNCH_DATE":"2022-04-21","TIME_SYSTEM":"UTC","APOAPSIS":"541.044","NORAD_CAT_ID":"52287","TLE_LINE1":"1 52287U 22041AC  22303.74802731  .00000014  00000-0  18957-4 0  9994","FILE":"3637924","GP_ID":"216529622","TLE_LINE2":"2 52287  53.2171 212.5939 0001849  48.4939 311.6212 15.08833654 29296","COUNTRY_CODE":"US","RA_OF_ASC_NODE":"212.5939","ECCENTRICITY":"0.00018490","MEAN_MOTION_DOT":"0.00000014","MEAN_MOTION_DDOT":"0.0000000000000","PERIAPSIS":"538.486","RCS_SIZE":"LARGE","REF_FRAME":"TEME","PERIOD":"95.438","MEAN_ANOMALY":"311.6212","INCLINATION":"53.2171","CENTER_NAME":"EARTH","EPHEMERIS_TYPE":"0","ARG_OF_PERICENTER":"48.4939","MEAN_ELEMENT_THEORY":"SGP4"},{"MEAN_ANOMALY":"308.9136","PERIOD":"95.437","INCLINATION":"53.2180","CENTER_NAME":"EARTH","ARG_OF_PERICENTER":"51.2026","EPHEMERIS_TYPE":"0","MEAN_ELEMENT_THEORY":"SGP4","ECCENTRICITY":"0.00018980","RCS_SIZE":"LARGE","PERIAPSIS":"538.393","MEAN_MOTION_DDOT":"0.0000000000000","MEAN_MOTION_DOT":"-0.00000515","REF_FRAME":"TEME","RA_OF_ASC_NODE":"203.8692","TLE_LINE1":"1 52288U 22041AD  22303.46188805 -.00000515  00000-0 -14267-4 0  9991","FILE":"3637924","TLE_LINE2":"2 52288  53.2180 203.8692 0001898  51.2026 308.9136 15.08852727 29385","COUNTRY_CODE":"US","GP_ID":"216530368","APOAPSIS":"541.019","NORAD_CAT_ID":"52288","REV_AT_EPOCH":"2938","OBJECT_NAME":"STARLINK-3776","SITE":"AFETR","ELEMENT_SET_NO":"999","MEAN_MOTION":"15.08852727","TIME_SYSTEM":"UTC","LAUNCH_DATE":"2022-04-21","BSTAR":"-0.00001426700000","OBJECT_ID":"2022-041AD","DECAY_DATE":null,"OBJECT_TYPE":"PAYLOAD","CLASSIFICATION_TYPE":"U","SEMIMAJOR_AXIS":"6917.841","EPOCH":"2022-10-30T11:05:07.127520"},{"BSTAR":"0.00000016908000","OBJECT_ID":"2022-041AE","DECAY_DATE":null,"CLASSIFICATION_TYPE":"U","OBJECT_TYPE":"PAYLOAD","SEMIMAJOR_AXIS":"6917.885","EPOCH":"2022-10-30T17:47:52.715040","APOAPSIS":"540.738","NORAD_CAT_ID":"52289","REV_AT_EPOCH":"2942","OBJECT_NAME":"STARLINK-3751","MEAN_MOTION":"15.08838340","SITE":"AFETR","ELEMENT_SET_NO":"999","LAUNCH_DATE":"2022-04-21","TIME_SYSTEM":"UTC","RA_OF_ASC_NODE":"202.6110","TLE_LINE1":"1 52289U 22041AE  22303.74158235 -.00000285  00000-0  16908-6 0  9996","FILE":"3637924","GP_ID":"216530612","COUNTRY_CODE":"US","TLE_LINE2":"2 52289  53.2175 202.6110 0001427  67.7182 292.3962 15.08838340 29428","PERIOD":"95.438","MEAN_ANOMALY":"292.3962","INCLINATION":"53.2175","CENTER_NAME":"EARTH","EPHEMERIS_TYPE":"0","ARG_OF_PERICENTER":"67.7182","MEAN_ELEMENT_THEORY":"SGP4","ECCENTRICITY":"0.00014270","MEAN_MOTION_DOT":"-0.00000285","MEAN_MOTION_DDOT":"0.0000000000000","RCS_SIZE":"LARGE","PERIAPSIS":"538.763","REF_FRAME":"TEME"},{"ECCENTRICITY":"0.00015890","RCS_SIZE":"LARGE","PERIAPSIS":"538.681","MEAN_MOTION_DDOT":"0.0000000000000","MEAN_MOTION_DOT":"-0.00002221","REF_FRAME":"TEME","MEAN_ANOMALY":"316.1598","PERIOD":"95.438","INCLINATION":"53.2185","CENTER_NAME":"EARTH","EPHEMERIS_TYPE":"0","ARG_OF_PERICENTER":"43.9520","MEAN_ELEMENT_THEORY":"SGP4","TLE_LINE1":"1 52290U 22041AF  22303.71678389 -.00002221  00000-0 -12155-3 0  9992","FILE":"3637924","COUNTRY_CODE":"US","TLE_LINE2":"2 52290  53.2185 202.7248 0001589  43.9520 316.1598 15.08828577 29426","GP_ID":"216529372","RA_OF_ASC_NODE":"202.7248","REV_AT_EPOCH":"2942","OBJECT_NAME":"STARLINK-3772","MEAN_MOTION":"15.08828577","SITE":"AFETR","ELEMENT_SET_NO":"999","TIME_SYSTEM":"UTC","LAUNCH_DATE":"2022-04-21","APOAPSIS":"540.880","NORAD_CAT_ID":"52290","OBJECT_TYPE":"PAYLOAD","CLASSIFICATION_TYPE":"U","SEMIMAJOR_AXIS":"6917.915","EPOCH":"2022-10-30T17:12:10.128096","BSTAR":"-0.00012155000000","OBJECT_ID":"2022-041AF","DECAY_DATE":null},{"APOAPSIS":"541.184","NORAD_CAT_ID":"52291","OBJECT_NAME":"STARLINK-3773","REV_AT_EPOCH":"2942","TIME_SYSTEM":"UTC","LAUNCH_DATE":"2022-04-21","ELEMENT_SET_NO":"999","SITE":"AFETR","MEAN_MOTION":"15.08836853","BSTAR":"-0.00007590400000","DECAY_DATE":null,"OBJECT_ID":"2022-041AG","OBJECT_TYPE":"PAYLOAD","CLASSIFICATION_TYPE":"U","EPOCH":"2022-10-30T17:37:17.398560","SEMIMAJOR_AXIS":"6917.890","CENTER_NAME":"EARTH","MEAN_ANOMALY":"319.6052","PERIOD":"95.438","INCLINATION":"53.2182","MEAN_ELEMENT_THEORY":"SGP4","ARG_OF_PERICENTER":"40.5094","EPHEMERIS_TYPE":"0","RCS_SIZE":"LARGE","PERIAPSIS":"538.326","MEAN_MOTION_DDOT":"0.0000000000000","MEAN_MOTION_DOT":"-0.00001496","ECCENTRICITY":"0.00020660","REF_FRAME":"TEME","RA_OF_ASC_NODE":"202.6390","TLE_LINE1":"1 52291U 22041AG  22303.73422915 -.00001496  00000-0 -75904-4 0  9992","TLE_LINE2":"2 52291  53.2182 202.6390 0002066  40.5094 319.6052 15.08836853 29420","COUNTRY_CODE":"US","GP_ID":"216530122","FILE":"3637924"},{"TIME_SYSTEM":"UTC","LAUNCH_DATE":"2022-04-21","ELEMENT_SET_NO":"999","SITE":"AFETR","MEAN_MOTION":"15.08835447","OBJECT_NAME":"STARLINK-3753","REV_AT_EPOCH":"2945","NORAD_CAT_ID":"52292","APOAPSIS":"540.878","EPOCH":"2022-10-30T21:51:38.113920","SEMIMAJOR_AXIS":"6917.894","OBJECT_TYPE":"PAYLOAD","CLASSIFICATION_TYPE":"U","DECAY_DATE":null,"OBJECT_ID":"2022-041AH","BSTAR":"-0.00009855000000","REF_FRAME":"TEME","RCS_SIZE":"LARGE","PERIAPSIS":"538.641","MEAN_MOTION_DDOT":"0.0000000000000","MEAN_MOTION_DOT":"-0.00001856","ECCENTRICITY":"0.00016170","MEAN_ELEMENT_THEORY":"SGP4","ARG_OF_PERICENTER":"70.6305","EPHEMERIS_TYPE":"0","CENTER_NAME":"EARTH","MEAN_ANOMALY":"289.4862","PERIOD":"95.438","INCLINATION":"53.2177","COUNTRY_CODE":"US","TLE_LINE2":"2 52292  53.2177 201.8472 0001617  70.6305 289.4862 15.08835447 29451","GP_ID":"216530868","FILE":"3637924","TLE_LINE1":"1 52292U 22041AH  22303.91085780 -.00001856  00000-0 -98550-4 0  9990","RA_OF_ASC_NODE":"201.8472"},{"FILE":"3637924","GP_ID":"216531112","TLE_LINE2":"2 52293  53.2183 202.6965 0001970  50.8575 309.2592 15.08831236 29426","COUNTRY_CODE":"US","TLE_LINE1":"1 52293U 22041AJ  22303.72319234 -.00001462  00000-0 -73812-4 0  9991","RA_OF_ASC_NODE":"202.6965","REF_FRAME":"TEME","ECCENTRICITY":"0.00019700","MEAN_MOTION_DDOT":"0.0000000000000","MEAN_MOTION_DOT":"-0.00001462","PERIAPSIS":"538.409","RCS_SIZE":"LARGE","ARG_OF_PERICENTER":"50.8575","EPHEMERIS_TYPE":"0","MEAN_ELEMENT_THEORY":"SGP4","PERIOD":"95.438","INCLINATION":"53.2183","MEAN_ANOMALY":"309.2592","CENTER_NAME":"EARTH","SEMIMAJOR_AXIS":"6917.907","EPOCH":"2022-10-30T17:21:23.818176","CLASSIFICATION_TYPE":"U","OBJECT_TYPE":"PAYLOAD","OBJECT_ID":"2022-041AJ","DECAY_DATE":null,"BSTAR":"-0.00007381200000","MEAN_MOTION":"15.08831236","SITE":"AFETR","ELEMENT_SET_NO":"999","LAUNCH_DATE":"2022-04-21","TIME_SYSTEM":"UTC","REV_AT_EPOCH":"2942","OBJECT_NAME":"STARLINK-3771","NORAD_CAT_ID":"52293","APOAPSIS":"541.135"},{"MEAN_ANOMALY":"310.7100","PERIOD":"95.438","INCLINATION":"53.2189","CENTER_NAME":"EARTH","EPHEMERIS_TYPE":"0","ARG_OF_PERICENTER":"49.4041","MEAN_ELEMENT_THEORY":"SGP4","ECCENTRICITY":"0.00017130","MEAN_MOTION_DOT":"-0.00001336","MEAN_MOTION_DDOT":"0.0000000000000","RCS_SIZE":"MEDIUM","PERIAPSIS":"538.572","REF_FRAME":"TEME","RA_OF_ASC_NODE":"201.8721","TLE_LINE1":"1 52294U 22041AK  22303.90718270 -.00001336  00000-0 -65871-4 0  9991","FILE":"3637924","GP_ID":"216529872","TLE_LINE2":"2 52294  53.2189 201.8721 0001713  49.4041 310.7100 15.08836149 29454","COUNTRY_CODE":"US","APOAPSIS":"540.942","NORAD_CAT_ID":"52294","REV_AT_EPOCH":"2945","OBJECT_NAME":"STARLINK-3777","MEAN_MOTION":"15.08836149","SITE":"AFETR","ELEMENT_SET_NO":"999","LAUNCH_DATE":"2022-04-21","TIME_SYSTEM":"UTC","BSTAR":"-0.00006587100000","OBJECT_ID":"2022-041AK","DECAY_DATE":null,"CLASSIFICATION_TYPE":"U","OBJECT_TYPE":"PAYLOAD","SEMIMAJOR_AXIS":"6917.892","EPOCH":"2022-10-30T21:46:20.585280"},{"TIME_SYSTEM":"UTC","LAUNCH_DATE":"2022-04-21","ELEMENT_SET_NO":"999","SITE":"AFETR","MEAN_MOTION":"15.08834033","OBJECT_NAME":"STARLINK-3765","REV_AT_EPOCH":"2942","NORAD_CAT_ID":"52295","APOAPSIS":"540.739","EPOCH":"2022-10-30T17:16:05.072160","SEMIMAJOR_AXIS":"6917.899","OBJECT_TYPE":"PAYLOAD","CLASSIFICATION_TYPE":"U","DECAY_DATE":null,"OBJECT_ID":"2022-041AL","BSTAR":"-0.00012944000000","REF_FRAME":"TEME","RCS_SIZE":"LARGE","PERIAPSIS":"538.788","MEAN_MOTION_DDOT":"0.0000000000000","MEAN_MOTION_DOT":"-0.00002347","ECCENTRICITY":"0.00014100","MEAN_ELEMENT_THEORY":"SGP4","EPHEMERIS_TYPE":"0","ARG_OF_PERICENTER":"54.1058","CENTER_NAME":"EARTH","PERIOD":"95.438","MEAN_ANOMALY":"306.0065","INCLINATION":"53.2177","COUNTRY_CODE":"US","TLE_LINE2":"2 52295  53.2177 202.6979 0001410  54.1058 306.0065 15.08834033 29426","GP_ID":"216529623","FILE":"3637924","TLE_LINE1":"1 52295U 22041AL  22303.71950315 -.00002347  00000-0 -12944-3 0  9994","RA_OF_ASC_NODE":"202.6979"},{"MEAN_ELEMENT_THEORY":"SGP4","EPHEMERIS_TYPE":"0","ARG_OF_PERICENTER":"58.3777","CENTER_NAME":"EARTH","PERIOD":"95.438","MEAN_ANOMALY":"301.7329","INCLINATION":"53.2202","REF_FRAME":"TEME","MEAN_MOTION_DDOT":"0.0000000000000","MEAN_MOTION_DOT":"-0.00002945","RCS_SIZE":"LARGE","PERIAPSIS":"538.954","ECCENTRICITY":"0.00011650","RA_OF_ASC_NODE":"201.9293","GP_ID":"216530369","COUNTRY_CODE":"US","TLE_LINE2":"2 52296  53.2202 201.9293 0001165  58.3777 301.7329 15.08835113 29456","FILE":"3637924","TLE_LINE1":"1 52296U 22041AM  22303.89613890 -.00002945  00000-0 -16706-3 0  9992","NORAD_CAT_ID":"52296","APOAPSIS":"540.566","LAUNCH_DATE":"2022-04-21","TIME_SYSTEM":"UTC","SITE":"AFETR","MEAN_MOTION":"15.08835113","ELEMENT_SET_NO":"999","OBJECT_NAME":"STARLINK-3766","REV_AT_EPOCH":"2945","DECAY_DATE":null,"OBJECT_ID":"2022-041AM","BSTAR":"-0.00016706000000","EPOCH":"2022-10-30T21:30:26.400960","SEMIMAJOR_AXIS":"6917.895","CLASSIFICATION_TYPE":"U","OBJECT_TYPE":"PAYLOAD"}];
